[
  {
    "COMMENT": "GENERATED VIA SPACETRACK.ORG API",
    "ORIGINATOR": "18 SPCS",
    "NORAD_CAT_ID": "46984",
    "OBJECT_NAME": "S6 MICHAEL FREILICH",
    "OBJECT_TYPE": "PAYLOAD",
    "CLASSIFICATION_TYPE": "U",
    "INTLDES": "20086A",
    "EPOCH": "2021-06-07 18:06:33",
    "EPOCH_MICROSECONDS": "652224",
    "MEAN_MOTION": "12.80930037",
    "ECCENTRICITY": "0.0007988",
    "INCLINATION": "66.0441",
    "RA_OF_ASC_NODE": "347.2966",
    "ARG_OF_PERICENTER": "264.1701",
    "MEAN_ANOMALY": "95.841",
    "EPHEMERIS_TYPE": "0",
    "ELEMENT_SET_NO": "999",
    "REV_AT_EPOCH": "2537",
    "BSTAR": "0",
    "MEAN_MOTION_DOT": "-0.00000061",
    "MEAN_MOTION_DDOT": "0",
    "FILE": "3051373",
    "TLE_LINE0": "0 S6 MICHAEL FREILICH",
    "TLE_LINE1": "1 46984U 20086A   21158.75455616 -.00000061  00000-0  00000-0 0  9991",
    "TLE_LINE2": "2 46984  66.0441 347.2966 0007988 264.1701  95.8410 12.80930037 25371",
    "OBJECT_ID": "2020-086A",
    "OBJECT_NUMBER": "46984",
    "SEMIMAJOR_AXIS": "7715.870",
    "PERIOD": "112.418",
    "APOGEE": "1343.898",
    "PERIGEE": "1331.572",
    "DECAYED": "0"
  },
  {
    "COMMENT": "GENERATED VIA SPACETRACK.ORG API",
    "ORIGINATOR": "18 SPCS",
    "NORAD_CAT_ID": "46984",
    "OBJECT_NAME": "S6 MICHAEL FREILICH",
    "OBJECT_TYPE": "PAYLOAD",
    "CLASSIFICATION_TYPE": "U",
    "INTLDES": "20086A",
    "EPOCH": "2021-06-08 05:21:08",
    "EPOCH_MICROSECONDS": "207424",
    "MEAN_MOTION": "12.80930042",
    "ECCENTRICITY": "0.0007987",
    "INCLINATION": "66.0442",
    "RA_OF_ASC_NODE": "346.3235",
    "ARG_OF_PERICENTER": "264.2424",
    "MEAN_ANOMALY": "95.768",
    "EPHEMERIS_TYPE": "0",
    "ELEMENT_SET_NO": "999",
    "REV_AT_EPOCH": "2543",
    "BSTAR": "0",
    "MEAN_MOTION_DOT": "-0.00000061",
    "MEAN_MOTION_DDOT": "0",
    "FILE": "3051818",
    "TLE_LINE0": "0 S6 MICHAEL FREILICH",
    "TLE_LINE1": "1 46984U 20086A   21159.22301166 -.00000061  00000-0  00000+0 0  9993",
    "TLE_LINE2": "2 46984  66.0442 346.3235 0007987 264.2424  95.7680 12.80930042 25434",
    "OBJECT_ID": "2020-086A",
    "OBJECT_NUMBER": "46984",
    "SEMIMAJOR_AXIS": "7715.870",
    "PERIOD": "112.418",
    "APOGEE": "1343.898",
    "PERIGEE": "1331.572",
    "DECAYED": "0"
  },
  {
    "COMMENT": "GENERATED VIA SPACETRACK.ORG API",
    "ORIGINATOR": "18 SPCS",
    "NORAD_CAT_ID": "46984",
    "OBJECT_NAME": "S6 MICHAEL FREILICH",
    "OBJECT_TYPE": "PAYLOAD",
    "CLASSIFICATION_TYPE": "U",
    "INTLDES": "20086A",
    "EPOCH": "2021-06-08 05:21:08",
    "EPOCH_MICROSECONDS": "207424",
    "MEAN_MOTION": "12.80930042",
    "ECCENTRICITY": "0.0007987",
    "INCLINATION": "66.0442",
    "RA_OF_ASC_NODE": "346.3235",
    "ARG_OF_PERICENTER": "264.2424",
    "MEAN_ANOMALY": "95.768",
    "EPHEMERIS_TYPE": "0",
    "ELEMENT_SET_NO": "999",
    "REV_AT_EPOCH": "2543",
    "BSTAR": "0",
    "MEAN_MOTION_DOT": "-0.00000061",
    "MEAN_MOTION_DDOT": "0",
    "FILE": "3051817",
    "TLE_LINE0": "0 S6 MICHAEL FREILICH",
    "TLE_LINE1": "1 46984U 20086A   21159.22301166 -.00000061  00000-0  00000+0 0  9993",
    "TLE_LINE2": "2 46984  66.0442 346.3235 0007987 264.2424  95.7680 12.80930042 25434",
    "OBJECT_ID": "2020-086A",
    "OBJECT_NUMBER": "46984",
    "SEMIMAJOR_AXIS": "7715.870",
    "PERIOD": "112.418",
    "APOGEE": "1343.898",
    "PERIGEE": "1331.572",
    "DECAYED": "0"
  },
  {
    "COMMENT": "GENERATED VIA SPACETRACK.ORG API",
    "ORIGINATOR": "18 SPCS",
    "NORAD_CAT_ID": "46984",
    "OBJECT_NAME": "S6 MICHAEL FREILICH",
    "OBJECT_TYPE": "PAYLOAD",
    "CLASSIFICATION_TYPE": "U",
    "INTLDES": "20086A",
    "EPOCH": "2021-06-08 16:35:42",
    "EPOCH_MICROSECONDS": "779904",
    "MEAN_MOTION": "12.80930069",
    "ECCENTRICITY": "0.0007953",
    "INCLINATION": "66.0442",
    "RA_OF_ASC_NODE": "345.3506",
    "ARG_OF_PERICENTER": "264.5231",
    "MEAN_ANOMALY": "95.4875",
    "EPHEMERIS_TYPE": "0",
    "ELEMENT_SET_NO": "999",
    "REV_AT_EPOCH": "2549",
    "BSTAR": "0",
    "MEAN_MOTION_DOT": "-0.00000061",
    "MEAN_MOTION_DDOT": "0",
    "FILE": "3052304",
    "TLE_LINE0": "0 S6 MICHAEL FREILICH",
    "TLE_LINE1": "1 46984U 20086A   21159.69146736 -.00000061  00000-0  00000+0 0  9994",
    "TLE_LINE2": "2 46984  66.0442 345.3506 0007953 264.5231  95.4875 12.80930069 25494",
    "OBJECT_ID": "2020-086A",
    "OBJECT_NUMBER": "46984",
    "SEMIMAJOR_AXIS": "7715.870",
    "PERIOD": "112.418",
    "APOGEE": "1343.871",
    "PERIGEE": "1331.598",
    "DECAYED": "0"
  },
  {
    "COMMENT": "GENERATED VIA SPACETRACK.ORG API",
    "ORIGINATOR": "18 SPCS",
    "NORAD_CAT_ID": "46984",
    "OBJECT_NAME": "S6 MICHAEL FREILICH",
    "OBJECT_TYPE": "PAYLOAD",
    "CLASSIFICATION_TYPE": "U",
    "INTLDES": "20086A",
    "EPOCH": "2021-06-08 20:20:34",
    "EPOCH_MICROSECONDS": "304928",
    "MEAN_MOTION": "12.80930085",
    "ECCENTRICITY": "0.0007963",
    "INCLINATION": "66.0443",
    "RA_OF_ASC_NODE": "345.0263",
    "ARG_OF_PERICENTER": "264.431",
    "MEAN_ANOMALY": "95.5802",
    "EPHEMERIS_TYPE": "0",
    "ELEMENT_SET_NO": "999",
    "REV_AT_EPOCH": "2551",
    "BSTAR": "0",
    "MEAN_MOTION_DOT": "-0.00000061",
    "MEAN_MOTION_DDOT": "0",
    "FILE": "3052044",
    "TLE_LINE0": "0 S6 MICHAEL FREILICH",
    "TLE_LINE1": "1 46984U 20086A   21159.84761927 -.00000061  00000-0  00000-0 0  9997",
    "TLE_LINE2": "2 46984  66.0443 345.0263 0007963 264.4310  95.5802 12.80930085 25512",
    "OBJECT_ID": "2020-086A",
    "OBJECT_NUMBER": "46984",
    "SEMIMAJOR_AXIS": "7715.870",
    "PERIOD": "112.418",
    "APOGEE": "1343.879",
    "PERIGEE": "1331.591",
    "DECAYED": "0"
  },
  {
    "COMMENT": "GENERATED VIA SPACETRACK.ORG API",
    "ORIGINATOR": "18 SPCS",
    "NORAD_CAT_ID": "46984",
    "OBJECT_NAME": "S6 MICHAEL FREILICH",
    "OBJECT_TYPE": "PAYLOAD",
    "CLASSIFICATION_TYPE": "U",
    "INTLDES": "20086A",
    "EPOCH": "2021-06-09 05:42:43",
    "EPOCH_MICROSECONDS": "102368",
    "MEAN_MOTION": "12.80930077",
    "ECCENTRICITY": "0.0007958",
    "INCLINATION": "66.0441",
    "RA_OF_ASC_NODE": "344.2155",
    "ARG_OF_PERICENTER": "264.2876",
    "MEAN_ANOMALY": "95.7232",
    "EPHEMERIS_TYPE": "0",
    "ELEMENT_SET_NO": "999",
    "REV_AT_EPOCH": "2556",
    "BSTAR": "0",
    "MEAN_MOTION_DOT": "-0.00000061",
    "MEAN_MOTION_DDOT": "0",
    "FILE": "3052306",
    "TLE_LINE0": "0 S6 MICHAEL FREILICH",
    "TLE_LINE1": "1 46984U 20086A   21160.23799887 -.00000061  00000-0  00000+0 0  9997",
    "TLE_LINE2": "2 46984  66.0441 344.2155 0007958 264.2876  95.7232 12.80930077 25565",
    "OBJECT_ID": "2020-086A",
    "OBJECT_NUMBER": "46984",
    "SEMIMAJOR_AXIS": "7715.870",
    "PERIOD": "112.418",
    "APOGEE": "1343.875",
    "PERIGEE": "1331.595",
    "DECAYED": "0"
  },
  {
    "COMMENT": "GENERATED VIA SPACETRACK.ORG API",
    "ORIGINATOR": "18 SPCS",
    "NORAD_CAT_ID": "46984",
    "OBJECT_NAME": "S6 MICHAEL FREILICH",
    "OBJECT_TYPE": "PAYLOAD",
    "CLASSIFICATION_TYPE": "U",
    "INTLDES": "20086A",
    "EPOCH": "2021-06-09 13:12:26",
    "EPOCH_MICROSECONDS": "146368",
    "MEAN_MOTION": "12.80930082",
    "ECCENTRICITY": "0.0007959",
    "INCLINATION": "66.0441",
    "RA_OF_ASC_NODE": "343.567",
    "ARG_OF_PERICENTER": "264.2753",
    "MEAN_ANOMALY": "95.7355",
    "EPHEMERIS_TYPE": "0",
    "ELEMENT_SET_NO": "999",
    "REV_AT_EPOCH": "2560",
    "BSTAR": "0",
    "MEAN_MOTION_DOT": "-0.00000061",
    "MEAN_MOTION_DDOT": "0",
    "FILE": "3052558",
    "TLE_LINE0": "0 S6 MICHAEL FREILICH",
    "TLE_LINE1": "1 46984U 20086A   21160.55030262 -.00000061  00000-0  00000-0 0  9998",
    "TLE_LINE2": "2 46984  66.0441 343.5670 0007959 264.2753  95.7355 12.80930082 25601",
    "OBJECT_ID": "2020-086A",
    "OBJECT_NUMBER": "46984",
    "SEMIMAJOR_AXIS": "7715.870",
    "PERIOD": "112.418",
    "APOGEE": "1343.876",
    "PERIGEE": "1331.594",
    "DECAYED": "0"
  },
  {
    "COMMENT": "GENERATED VIA SPACETRACK.ORG API",
    "ORIGINATOR": "18 SPCS",
    "NORAD_CAT_ID": "46984",
    "OBJECT_NAME": "S6 MICHAEL FREILICH",
    "OBJECT_TYPE": "PAYLOAD",
    "CLASSIFICATION_TYPE": "U",
    "INTLDES": "20086A",
    "EPOCH": "2021-06-09 18:49:43",
    "EPOCH_MICROSECONDS": "429152",
    "MEAN_MOTION": "12.80930075",
    "ECCENTRICITY": "0.0007963",
    "INCLINATION": "66.0439",
    "RA_OF_ASC_NODE": "343.0803",
    "ARG_OF_PERICENTER": "264.2282",
    "MEAN_ANOMALY": "95.7828",
    "EPHEMERIS_TYPE": "0",
    "ELEMENT_SET_NO": "999",
    "REV_AT_EPOCH": "2563",
    "BSTAR": "0",
    "MEAN_MOTION_DOT": "-0.00000061",
    "MEAN_MOTION_DDOT": "0",
    "FILE": "3052622",
    "TLE_LINE0": "0 S6 MICHAEL FREILICH",
    "TLE_LINE1": "1 46984U 20086A   21160.78453043 -.00000061  00000-0  00000-0 0  9999",
    "TLE_LINE2": "2 46984  66.0439 343.0803 0007963 264.2282  95.7828 12.80930075 25633",
    "OBJECT_ID": "2020-086A",
    "OBJECT_NUMBER": "46984",
    "SEMIMAJOR_AXIS": "7715.870",
    "PERIOD": "112.418",
    "APOGEE": "1343.879",
    "PERIGEE": "1331.591",
    "DECAYED": "0"
  }
]